STARLINK-33719          
1 63578U 25076K   26188.75492527  .00017330  00000+0  63728-3 0  9997
2 63578  43.0028   3.5617 0001590 252.6994 107.3684 15.27607542 70197
STARLINK-33755          
1 63579U 25076L   26188.75618959  .00018232  00000+0  66976-3 0  9997
2 63579  43.0031   3.4869 0002064 282.9290  77.1331 15.27611127 70199
STARLINK-33752          
1 63580U 25076M   26188.50748788  .00039597  00000+0  14363-2 0  9995
2 63580  43.0029   5.1452 0001968 260.2755  99.7874 15.27681129 70159
STARLINK-33714          
1 63581U 25076N   26188.81259429  .00015630  00000+0  57571-3 0  9990
2 63581  43.0066   3.1338 0002409 266.1235  93.9342 15.27613077 70200
STARLINK-33814          
1 63582U 25076P   26189.19848289  .00011099  00000+0  41201-3 0  9999
2 63582  43.0047   0.8661 0002397 266.8955  93.1622 15.27598146 70263
STARLINK-33817          
1 63583U 25076Q   26188.47281743  .00018544  00000+0  68115-3 0  9991
2 63583  43.0065   4.8812 0001958 272.8629  87.1998 15.27606086 70142
STARLINK-33820          
1 63584U 25076R   26188.46510973  .00021812  00000+0  79928-3 0  9997
2 63584  43.0038   4.8157 0001894 259.3639 100.7000 15.27601185 70157
STARLINK-33813          
1 63585U 25076S   26188.46636989  .00022153  00000+0  81069-3 0  9992
2 63585  43.0160   4.8376 0001037 238.8896 121.1854 15.27638535 70156
STARLINK-33834          
1 63586U 25076T   26188.82801956  .00015139  00000+0  55807-3 0  9998
2 63586  42.9998   3.2425 0001762 247.3381 112.7284 15.27607041 70208
STARLINK-33830          
1 63587U 25076U   26188.49852074  .00017803  00000+0  65452-3 0  9996
2 63587  43.0012   5.0692 0001813 258.5187 101.5461 15.27599826 70157
STARLINK-33651          
1 63588U 25076V   26188.76134419  .00019311  00000+0  70873-3 0  9992
2 63588  43.0016   3.6041 0001549 286.2357  73.8325 15.27612824 70195
STARLINK-33788          
1 63589U 25076W   26188.97420470  .00014805  00000+0  54582-3 0  9993
2 63589  43.0010   2.6283 0001238 280.6114  79.4598 15.27617567 70228
STARLINK-33805          
1 63590U 25076X   26188.91909332  .00015417  00000+0  56793-3 0  9994
2 63590  43.0042   3.0581 0001838 273.1323  86.9318 15.27618595 70210
STARLINK-33702          
1 63591U 25076Y   26189.19976872  .00019687  00000+0  72225-3 0  9990
2 63591  43.0056   0.8724 0002133 269.5658  90.4949 15.27614093 70263
STARLINK-33666          
1 63592U 25076Z   26188.51136814  .00020877  00000+0  76539-3 0  9995
2 63592  42.9988   5.1667 0002401 264.3329  95.7248 15.27606218 70154
STARLINK-33723          
1 63593U 25076AA  26188.48695708  .00016734  00000+0  61580-3 0  9991
2 63593  43.0091   4.9868 0003751 281.0191  79.0239 15.27600725 70156
STARLINK-33791          
1 63594U 25076AB  26188.97163321  .00015862  00000+0  58403-3 0  9998
2 63594  43.0012   2.6033 0001347 292.0324  68.0384 15.27617038 70220
STARLINK-33831          
1 63595U 25076AC  26188.75233554  .00013055  00000+0  48273-3 0  9997
2 63595  43.0023   3.4717 0001553 288.6096  71.4587 15.27604015 70197
STARLINK-33879          
1 63634U 25083A   26189.00595642  .00011754  00000+0  43570-3 0  9996
2 63634  43.0030  46.0743 0001314  30.1183 329.9744 15.27599909 68461
STARLINK-33854          
1 63635U 25083B   26188.89812456  .00013774  00000+0  50840-3 0  9990
2 63635  42.9993  46.1270 0001956 288.1318  71.9321 15.27626415 68458
STARLINK-33864          
1 63636U 25083C   26188.94436774  .00023676  00000+0  86445-3 0  9994
2 63636  43.0009  46.4721 0001449 272.6304  87.4382 15.27681537 68481
STARLINK-33832          
1 63637U 25083D   26186.99425075  .00050663  00000+0  18390-2 0  9999
2 63637  42.9947  56.7799 0000535 299.3719  60.7079 15.27561592 68161
STARLINK-33856          
1 63638U 25083E   26189.03149640  .00017920  00000+0  65862-3 0  9995
2 63638  43.0020  45.4046 0001704 297.2614  62.8064 15.27606155 68472
STARLINK-33876          
1 63639U 25083F   26188.98152698  .00013658  00000+0  50455-3 0  9992
2 63639  43.0062  45.8807 0001150 275.3476  84.7244 15.27603887 68467
STARLINK-33859          
1 63640U 25083G   26189.00852671  .00014007  00000+0  51735-3 0  9997
2 63640  43.0011  46.0991 0001645  24.4141 335.6788 15.27593421 68464
STARLINK-33826          
1 63641U 25083H   26188.96867258  .00015944  00000+0  58764-3 0  9999
2 63641  43.0015  45.7962 0002103 241.1051 118.9590 15.27580479 68463
STARLINK-33836          
1 63642U 25083J   26188.99952066  .00015002  00000+0  55335-3 0  9991
2 63642  43.0044  46.0291 0000685 327.5757  32.5052 15.27593629 68465
STARLINK-33558          
1 63643U 25083K   26189.02507256  .00017610  00000+0  64756-3 0  9998
2 63643  42.9994  45.3559 0001044 274.7342  85.3390 15.27598840 68472
STARLINK-33852          
1 63644U 25083L   26188.99823089  .00014966  00000+0  55214-3 0  9999
2 63644  43.0046  46.0200 0001384 291.8783  68.1921 15.27588625 68491
STARLINK-33835          
1 63645U 25083M   26188.98539681  .00013033  00000+0  48199-3 0  9999
2 63645  43.0035  45.9127 0002778  45.8927 314.2153 15.27600916 68491
STARLINK-33661          
1 63646U 25083N   26188.97125986  .00011845  00000+0  43931-3 0  9996
2 63646  43.0022  45.8059 0000781 266.5696  93.5066 15.27576145 68494
STARLINK-33729          
1 63647U 25083P   26189.00467227  .00011573  00000+0  42916-3 0  9999
2 63647  43.0034  46.0657 0001633  34.6082 325.4876 15.27598600 68468
STARLINK-33717          
1 63648U 25083Q   26189.02764375  .00018742  00000+0  68839-3 0  9993
2 63648  43.0002  45.3751 0001784 294.2523  65.8142 15.27601791 68470
STARLINK-33684          
1 63649U 25083R   26189.01992921  .00010174  00000+0  37850-3 0  9993
2 63649  43.0016  45.3163 0002158 276.9057  83.1549 15.27600384 68479
STARLINK-33704          
1 63650U 25083S   26188.97639502  .00012592  00000+0  46603-3 0  9994
2 63650  43.0025  45.8485 0001714  34.2182 325.8780 15.27601246 68464
STARLINK-33705          
1 63651U 25083T   26188.97255564  .00014300  00000+0  52851-3 0  9998
2 63651  43.0023  45.8151 0001637  39.4865 320.6105 15.27557951 68492
STARLINK-33663          
1 63652U 25083U   26187.98402911  .00024806  00000+0  90665-3 0  9996
2 63652  43.0013  51.2955 0002264 268.1421  91.9171 15.27624483 68318
STARLINK-33866          
1 63653U 25083V   26188.99567119  .00010169  00000+0  37836-3 0  9999
2 63653  42.9981  46.0015 0001455  18.4850 341.6054 15.27596034 68497
STARLINK-33849          
1 63654U 25083W   26188.92765639  .00024527  00000+0  89507-3 0  9995
2 63654  43.0054  46.3436 0002078 276.1910  83.8705 15.27681622 68455
STARLINK-33873          
1 63655U 25083X   26188.99438953  .00011025  00000+0  40936-3 0  9991
2 63655  42.9985  45.9915 0001262   9.1273 350.9601 15.27595197 68492
STARLINK-33772          
1 63656U 25083Y   26188.97768626  .00011577  00000+0  42938-3 0  9999
2 63656  43.0024  45.8545 0002326  47.4705 312.6343 15.27594638 68491
STARLINK-33789          
1 63657U 25083Z   26187.00838985  .00019244  00000+0  70808-3 0  9995
2 63657  43.0015  56.8779 0000937 279.5111  80.5634 15.27529336 68192
STARLINK-33822          
1 63658U 25083AA  26188.99182147  .00015920  00000+0  58643-3 0  9997
2 63658  42.9975  45.9692 0000706  40.8177 319.2727 15.27599999 68494
STARLINK-33771          
1 63659U 25083AB  26187.98870118  .00035394  00000+0  12875-2 0  9991
2 63659  42.9996  54.8684 0001045 250.3972 109.6767 15.27631686 68301
STARLINK-33810          
1 63660U 25083AC  26189.02635933  .00017453  00000+0  64200-3 0  9990
2 63660  43.0003  45.3618 0001407 344.7121  15.3688 15.27593124 68503
STARLINK-33823          
1 63661U 25083AD  26188.92257005  .00017491  00000+0  64310-3 0  9993
2 63661  43.0025  46.3075 0001025 266.6955  93.3779 15.27607511 68489
STARLINK-11651 [DTC]    
1 63664U 25085A   26188.27596104  .00172821  00000+0  13138-2 0  9992
2 63664  42.9991 277.2328 0002438 256.7668 103.2928 15.70996966 69063
STARLINK-11672 [DTC]    
1 63665U 25085B   26188.71573808  .00196324  00000+0  14947-2 0  9991
2 63665  42.9998 274.5101 0002205 281.8218  78.2402 15.70886223 69738
STARLINK-11666 [DTC]    
1 63667U 25085D   26188.45622606  .00199331  00000+0  15195-2 0  9992
2 63667  43.0020 276.8975 0002969 293.8309  66.2248 15.70845695 68982
STARLINK-11663 [DTC]    
1 63668U 25085E   26189.21391125  .00169684  00000+0  12950-2 0  9991
2 63668  42.9979 272.2524 0000864 275.3714  84.7055 15.70914432 69204
STARLINK-11595 [DTC]    
1 63669U 25085F   26188.69993731  .00157859  00000+0  12087-2 0  9996
2 63669  42.9992 275.2748 0001389 283.1510  76.9203 15.70875713 69762
STARLINK-11599 [DTC]    
1 63670U 25085G   26188.37671373  .00134264  00000+0  10339-2 0  9991
2 63670  42.9999 277.1495 0001477 287.3523  72.7183 15.70820070 69069
STARLINK-11603 [DTC]    
1 63671U 25085H   26188.30781491  .00119783  00000+0  92359-3 0  9990
2 63671  42.9984 277.4840 0001679 210.4550 149.6220 15.70839952 69056
STARLINK-11644 [DTC]    
1 63672U 25085J   26188.30250216  .00137135  00000+0  10522-2 0  9999
2 63672  42.9990 277.4436 0001801 239.3130 120.7560 15.70895446 69053
STARLINK-11634 [DTC]    
1 63673U 25085K   26188.29719898  .00146485  00000+0  11189-2 0  9992
2 63673  42.9991 277.4028 0001971 260.4313  99.6332 15.70970018 69058
STARLINK-11656 [DTC]    
1 63674U 25085L   26189.18205801  .00111695  00000+0  86220-3 0  9990
2 63674  42.9981 271.9918 0000562 247.6364 112.4445 15.70843330 69193
STARLINK-11655 [DTC]    
1 63675U 25085M   26188.47733878  .00411175  00000+0  30611-2 0  9990
2 63675  42.9992 276.1660 0000829 252.2494 107.8283 15.70767721 69084
STARLINK-11661 [DTC]    
1 63676U 25085N   26188.72636293  .00174997  00000+0  13248-2 0  9997
2 63676  42.9991 274.5897 0002549 332.0721  28.0009 15.71088288 69770
STARLINK-33816          
1 63677U 25085P   26189.03612112  .00010982  00000+0  40813-3 0  9999
2 63677  42.9991  71.4107 0001079   9.1607 350.9264 15.27568266 67375
